GLOBALSTAR M023         
1 25621U 99004A   24235.75138012 -.00000057  00000+0  26222-3 0  9990
2 25621  52.0082 242.1685 0010124 187.8203 342.8164 12.62465530178121
GLOBALSTAR M040         
1 25622U 99004B   24236.22426736 -.00000057  00000+0  26412-3 0  9998
2 25622  51.9892 244.4396 0000904 104.6573 337.2501 12.61980585177937
GLOBALSTAR M036         
1 25623U 99004C   24236.52556222  .00000104  00000+0  27226-2 0  9991
2 25623  51.9984 304.8815 0011195 197.2660 268.3967 11.86578822143628
GLOBALSTAR M038         
1 25624U 99004D   24236.41461042 -.00000060  00000+0  28734-3 0  9993
2 25624  51.9948 209.1084 0001701 148.0686  19.9565 12.32506056165617
GLOBALSTAR M022         
1 25649U 99012A   24235.73585701 -.00000055  00000+0  37770-3 0  9996
2 25649  52.0062  22.2193 0001748 306.7944  65.3346 12.02487178140478
GLOBALSTAR M041         
1 25650U 99012B   24236.19179751 -.00000066  00000+0  24776-3 0  9997
2 25650  51.9995 253.3485 0002745  97.6446 262.4703 11.96659559142852
GLOBALSTAR M046         
1 25651U 99012C   24235.56306006 -.00000175  00000+0 -95475-3 0  9999
2 25651  52.0086 343.7271 0002218  33.6678 339.7526 12.09395347147881
GLOBALSTAR M037         
1 25652U 99012D   24235.70153854 -.00000062  00000+0  23394-3 0  9992
2 25652  52.0028  13.0456 0001292 224.4114 238.8075 12.62415362173578
